[{"OBJECT_NAME":"STARLINK-31126","OBJECT_ID":"2023-211J","EPOCH":"2026-03-09T01:26:59.563968","MEAN_MOTION":15.27578005,"ECCENTRICITY":0.00015842,"INCLINATION":43.0014,"RA_OF_ASC_NODE":88.3695,"ARG_OF_PERICENTER":283.5016,"MEAN_ANOMALY":76.5659,"EPHEMERIS_TYPE":0,"CLASSIFICATION_TYPE":"U","NORAD_CAT_ID":58675,"ELEMENT_SET_NO":999,"REV_AT_EPOCH":12237,"BSTAR":1.5354581e-5,"MEAN_MOTION_DOT":1.6e-6,"MEAN_MOTION_DDOT":0},{"OBJECT_NAME":"OBJECT D","OBJECT_ID":"2024-173D","EPOCH":"2026-03-09T23:30:29.956896","MEAN_MOTION":15.27005733,"ECCENTRICITY":0.00090093,"INCLINATION":97.3606,"RA_OF_ASC_NODE":149.3901,"ARG_OF_PERICENTER":241.6081,"MEAN_ANOMALY":118.425,"EPHEMERIS_TYPE":0,"CLASSIFICATION_TYPE":"U","NORAD_CAT_ID":61230,"ELEMENT_SET_NO":999,"REV_AT_EPOCH":8130,"BSTAR":0.00072064626,"MEAN_MOTION_DOT":0.00019078,"MEAN_MOTION_DDOT":0}]
